STARLETTE               
1 07646U 75010A   24318.14502016 -.00000120  00000+0  16551-4 0  9998
2 07646  49.8245 238.0612 0205645 303.5513  54.5891 13.82337272514146
LAGEOS 1                
1 08820U 76039A   24317.98023007  .00000029  00000+0  00000+0 0  9998
2 08820 109.8539 340.2658 0044007  66.4688 328.5512  6.38664884876433
AJISAI (EGS)            
1 16908U 86061A   24318.12154263 -.00000077  00000+0  14440-3 0  9997
2 16908  50.0064 134.1486 0011474 140.4611 324.6088 12.44509148408384
COSMOS 1989 (ETALON 1)  
1 19751U 89001C   24318.18946185  .00000026  00000+0  00000+0 0  9997
2 19751  64.6259  92.1165 0023736 216.1291 314.6470  2.13156003279053
COSMOS 2024 (ETALON 2)  
1 20026U 89039C   24318.37486000 -.00000028  00000+0  00000+0 0  9994
2 20026  65.2673 330.4724 0019822 216.6984 154.1322  2.13204310276113
LAGEOS 2                
1 22195U 92070B   24318.24080600 -.00000009  00000+0  00000+0 0  9993
2 22195  52.6559 273.8054 0137406 292.8925 107.9100  6.47293743758014
STELLA                  
1 22824U 93061B   24317.92236330 -.00000002  00000+0  17918-4 0  9994
2 22824  98.8589   6.3791 0007277 121.8723  51.4077 14.27441395621845
LARETS                  
1 27944U 03042F   24318.49247380  .00000360  00000+0  78727-4 0  9993
2 27944  98.3375 100.2193 0013285  52.9070 307.3344 14.63643340128493
LARES                   
1 38077U 12006A   24317.78387528 -.00000041  00000+0 -15572-4 0  9999
2 38077  69.4906 205.3366 0011028 239.1358 120.8584 12.54931749584122
LARES-2                 
1 53105U 22080A   24317.86270554  .00000041  00000+0  00000+0 0  9993
2 53105  70.1375 144.7116 0004884 104.1349 255.9945  6.38965259 54527
